OBJECT_NAME,OBJECT_ID,EPOCH,MEAN_MOTION,ECCENTRICITY,INCLINATION,RA_OF_ASC_NODE,ARG_OF_PERICENTER,MEAN_ANOMALY,EPHEMERIS_TYPE,CLASSIFICATION_TYPE,NORAD_CAT_ID,ELEMENT_SET_NO,REV_AT_EPOCH,BSTAR,MEAN_MOTION_DOT,MEAN_MOTION_DDOT
STARLINK-37517,2026-117S,2026-06-16T06:18:10.028448,15.82042789,.00008454,53.1575,247.8473,42.7213,317.3876,0,U,69254,999,283,.88297077E-3,.187302E-2,0
STARLINK-37378,2026-117T,2026-06-16T06:17:41.314272,15.82051939,.00013898,53.1578,247.8446,34.0935,326.0177,0,U,69255,999,283,.93830549E-3,.199452E-2,0
STARLINK-37396,2026-117U,2026-06-16T06:14:09.675744,15.82021883,.00009379,53.1572,247.8268,38.8485,321.2606,0,U,69256,999,283,.11420372E-2,.243831E-2,0
STARLINK-37508,2026-117V,2026-06-16T06:16:18.920640,15.80942367,.00015199,53.1579,247.8364,26.2805,333.8294,0,U,69257,999,283,.95471236E-3,.192608E-2,0
STARLINK-37276,2026-117W,2026-06-16T05:37:30.309312,15.80901838,.00013993,53.1577,247.6523,55.8874,304.2282,0,U,69258,999,283,.85248093E-3,.171156E-2,0
STARLINK-37518,2026-117X,2026-06-16T05:39:18.529632,15.80812965,.00012087,53.1576,247.6623,92.9494,267.1667,0,U,69259,999,283,.60692189E-3,.120437E-2,0
STARLINK-37478,2026-117Y,2026-06-16T05:39:35.947872,15.80897626,.00010114,53.1580,247.6637,64.0930,296.0197,0,U,69260,999,283,.92773482E-3,.186627E-2,0
STARLINK-37506,2026-117Z,2026-06-16T05:38:53.690496,15.80907490,.00009307,53.1573,247.6589,84.2561,275.8568,0,U,69261,999,283,.83399E-3,.167398E-2,0
STARLINK-37503,2026-117AA,2026-06-16T05:38:31.471008,15.80893179,.00012158,53.1579,247.6572,56.4445,303.6694,0,U,69262,999,283,.81810812E-3,.164024E-2,0
STARLINK-37502,2026-117AB,2026-06-16T05:37:47.024256,15.80915111,.0001461,53.1580,247.6535,56.7524,303.3639,0,U,69263,999,283,.86763302E-3,.174384E-2,0
STARLINK-37486,2026-117AC,2026-06-16T05:36:01.722528,15.80901225,.00010113,53.1576,247.6447,90.0012,270.1126,0,U,69264,999,283,.95613636E-3,.192527E-2,0
STARLINK-37435,2026-117AD,2026-06-16T05:38:10.333248,15.80892412,.0000891,53.1576,247.6545,58.1676,301.9433,0,U,69265,999,283,.11299528E-2,.228523E-2,0
STARLINK-37464,2026-117AE,2026-06-16T05:32:43.644480,15.82045485,.00013909,53.1571,247.6283,41.6771,318.4358,0,U,69266,999,283,.11850243E-2,.253602E-2,0
KUIPER-00282,2026-118A,2026-06-16T04:19:11.471232,15.34462439,.0012419,51.8589,58.4174,174.5847,185.5275,0,U,69267,999,382,-.64628343E-3,-.22278E-3,0
KUIPER-00383,2026-118B,2026-06-16T04:14:58.037568,15.34471068,.00108988,51.8593,58.3992,180.0189,180.0798,0,U,69268,999,382,-.1544786E-3,-.5627E-4,0
KUIPER-00527,2026-118C,2026-06-16T04:08:40.338240,15.34937955,.00097676,51.8619,58.3726,173.3574,186.7543,0,U,69269,999,382,.29744894E-3,.9876E-4,0
KUIPER-00562,2026-118D,2026-06-16T04:58:04.571040,15.38609508,.00017825,51.8722,57.8598,109.5354,250.5826,0,U,69270,999,383,.54891786E-3,.20924E-3,0
KUIPER-00570,2026-118E,2026-06-16T04:11:47.368320,15.34652247,.00118034,51.8577,58.3840,181.6976,178.3971,0,U,69271,999,382,.34506256E-3,.11422E-3,0
KUIPER-00572,2026-118F,2026-06-16T03:50:42.921600,15.36994897,.00070738,51.8686,58.2985,167.3346,192.7819,0,U,69272,999,382,.63816579E-3,.23152E-3,0
KUIPER-00581,2026-118G,2026-06-16T03:56:01.567392,15.36626720,.00088182,51.8665,58.3205,171.3739,188.7401,0,U,69273,999,391,.52135621E-3,.18613E-3,0
KUIPER-00584,2026-118H,2026-06-16T04:14:55.647744,15.34572875,.00119199,51.8605,58.4000,184.1546,175.9342,0,U,69274,999,382,.37124523E-3,.12288E-3,0
KUIPER-00587,2026-118J,2026-06-16T05:28:47.362944,15.36670480,.00081396,51.8637,57.9999,174.6493,185.4582,0,U,69275,999,383,.55153571E-3,.19741E-3,0
KUIPER-00590,2026-118K,2026-06-16T03:36:25.809408,15.37897632,.00040597,51.8696,58.2340,153.8401,206.2792,0,U,69276,999,382,.53854896E-3,.20045E-3,0
KUIPER-00592,2026-118L,2026-06-16T05:06:32.300640,15.38076391,.00037902,51.8714,57.9030,133.9533,226.1767,0,U,69277,999,383,.52729647E-3,.19733E-3,0
KUIPER-00593,2026-118M,2026-06-16T05:07:31.997856,15.38033968,.00038335,51.8720,57.9066,151.1799,208.9401,0,U,69278,999,389,.52998067E-3,.19808E-3,0
KUIPER-00594,2026-118N,2026-06-16T04:56:25.518624,15.38643363,.00010399,51.8722,57.8559,79.2878,280.8226,0,U,69279,999,383,.53110816E-3,.20253E-3,0
KUIPER-00595,2026-118P,2026-06-16T04:59:28.881888,15.38545104,.00017571,51.8716,57.8715,134.5126,225.6005,0,U,69280,999,386,.56248391E-3,.21407E-3,0
KUIPER-00596,2026-118Q,2026-06-16T04:12:54.223776,15.34680884,.00126209,51.8555,58.3853,181.6617,178.4328,0,U,69281,999,382,.89474904E-3,.30345E-3,0
KUIPER-00597,2026-118R,2026-06-16T03:48:19.608192,15.37017171,.00069017,51.8663,58.2867,168.2514,191.8635,0,U,69282,999,382,.55232699E-3,.1999E-3,0
KUIPER-00599,2026-118S,2026-06-16T05:18:05.266656,15.37374096,.00061467,51.8701,57.9555,160.6120,199.5101,0,U,69283,999,383,.55732292E-3,.2041E-3,0
